[{"OBJECT_NAME":"INNOSAT 3 (RS92S0)","OBJECT_ID":"2025-155U","EPOCH":"2026-03-09T22:04:35.098752","MEAN_MOTION":15.36713341,"ECCENTRICITY":0.00065738,"INCLINATION":97.4426,"RA_OF_ASC_NODE":38.6151,"ARG_OF_PERICENTER":146.647,"MEAN_ANOMALY":213.5189,"EPHEMERIS_TYPE":0,"CLASSIFICATION_TYPE":"U","NORAD_CAT_ID":64894,"ELEMENT_SET_NO":999,"REV_AT_EPOCH":6568,"BSTAR":0.0011717269,"MEAN_MOTION_DOT":0.00042146,"MEAN_MOTION_DDOT":0},{"OBJECT_NAME":"GLOBAL-5","OBJECT_ID":"2023-041C","EPOCH":"2026-03-09T09:52:06.984480","MEAN_MOTION":15.38177268,"ECCENTRICITY":0.00022192,"INCLINATION":42.0019,"RA_OF_ASC_NODE":63.5759,"ARG_OF_PERICENTER":343.4481,"MEAN_ANOMALY":16.6286,"EPHEMERIS_TYPE":0,"CLASSIFICATION_TYPE":"U","NORAD_CAT_ID":55983,"ELEMENT_SET_NO":999,"REV_AT_EPOCH":16656,"BSTAR":0.00050903717,"MEAN_MOTION_DOT":0.00019362,"MEAN_MOTION_DDOT":0}]
